ONEWEB-0032             
1 45141U 20008L   23319.30681449 -.00000602  00000+0 -17609-2 0  9992
2 45141  87.8930 223.9546 0001565  68.0150 292.1143 13.10373777184554
ONEWEB-0033             
1 45142U 20008M   23319.28084163  .00000509  00000+0  14223-2 0  9993
2 45142  87.8926 223.9676 0001415  78.4991 281.6295 13.10369463184464
ONEWEB-0035             
1 45143U 20008N   23319.23696310 -.00000435  00000+0 -12830-2 0  9994
2 45143  87.8929 223.9488 0001625  74.1900 285.9407 13.10375931184183
ONEWEB-0036             
1 45144U 20008P   23319.30355686 -.00000544  00000+0 -15937-2 0  9993
2 45144  87.8930 223.8979 0001827  70.7079 289.4245 13.10367227184620
ONEWEB-0038             
1 45145U 20008Q   23319.22054532  .00000593  00000+0  16380-2 0  9996
2 45145  87.9007 208.8121 0001628  42.4806 317.6447 13.11420037186475
ONEWEB-0039             
1 45146U 20008R   23319.28408929  .00000353  00000+0  97574-3 0  9995
2 45146  87.8919 223.9188 0002077  63.9875 296.1466 13.10368976184417
ONEWEB-0040             
1 45147U 20008S   23319.96481695  .00000631  00000+0  17711-2 0  9995
2 45147  87.8928 223.7715 0001673  69.1953 290.9354 13.10370503184202
ONEWEB-0041             
1 45148U 20008T   23319.56856750  .00000132  00000+0  18951-3 0  9994
2 45148  87.9452 200.1121 0019253  61.9836 298.3258 13.48425741190746
