<?xml version="1.0" encoding="UTF-8"?>
<ndm xmlns:xsi="http://www.w3.org/2001/XMLSchema-instance" xsi:noNamespaceSchemaLocation="https://sanaregistry.org/r/ndmxml_unqualified/ndmxml-2.0.0-master-2.0.xsd">
<omm id="CCSDS_OMM_VERS" version="2.0">
<header><CREATION_DATE/><ORIGINATOR/></header><body><segment><metadata><OBJECT_NAME>ONEWEB-0032</OBJECT_NAME><OBJECT_ID>2020-008L</OBJECT_ID><CENTER_NAME>EARTH</CENTER_NAME><REF_FRAME>TEME</REF_FRAME><TIME_SYSTEM>UTC</TIME_SYSTEM><MEAN_ELEMENT_THEORY>SGP4</MEAN_ELEMENT_THEORY></metadata><data><meanElements><EPOCH>2023-11-15T07:21:48.771936</EPOCH><MEAN_MOTION>13.10373777</MEAN_MOTION><ECCENTRICITY>.0001565</ECCENTRICITY><INCLINATION>87.8930</INCLINATION><RA_OF_ASC_NODE>223.9546</RA_OF_ASC_NODE><ARG_OF_PERICENTER>68.0150</ARG_OF_PERICENTER><MEAN_ANOMALY>292.1143</MEAN_ANOMALY></meanElements><tleParameters><EPHEMERIS_TYPE>0</EPHEMERIS_TYPE><CLASSIFICATION_TYPE>U</CLASSIFICATION_TYPE><NORAD_CAT_ID>45141</NORAD_CAT_ID><ELEMENT_SET_NO>999</ELEMENT_SET_NO><REV_AT_EPOCH>18455</REV_AT_EPOCH><BSTAR>-.17609E-2</BSTAR><MEAN_MOTION_DOT>-.602E-5</MEAN_MOTION_DOT><MEAN_MOTION_DDOT>0</MEAN_MOTION_DDOT></tleParameters></data></segment></body></omm>
<omm id="CCSDS_OMM_VERS" version="2.0">
<header><CREATION_DATE/><ORIGINATOR/></header><body><segment><metadata><OBJECT_NAME>ONEWEB-0033</OBJECT_NAME><OBJECT_ID>2020-008M</OBJECT_ID><CENTER_NAME>EARTH</CENTER_NAME><REF_FRAME>TEME</REF_FRAME><TIME_SYSTEM>UTC</TIME_SYSTEM><MEAN_ELEMENT_THEORY>SGP4</MEAN_ELEMENT_THEORY></metadata><data><meanElements><EPOCH>2023-11-15T06:44:24.716832</EPOCH><MEAN_MOTION>13.10369463</MEAN_MOTION><ECCENTRICITY>.0001415</ECCENTRICITY><INCLINATION>87.8926</INCLINATION><RA_OF_ASC_NODE>223.9676</RA_OF_ASC_NODE><ARG_OF_PERICENTER>78.4991</ARG_OF_PERICENTER><MEAN_ANOMALY>281.6295</MEAN_ANOMALY></meanElements><tleParameters><EPHEMERIS_TYPE>0</EPHEMERIS_TYPE><CLASSIFICATION_TYPE>U</CLASSIFICATION_TYPE><NORAD_CAT_ID>45142</NORAD_CAT_ID><ELEMENT_SET_NO>999</ELEMENT_SET_NO><REV_AT_EPOCH>18446</REV_AT_EPOCH><BSTAR>.14223E-2</BSTAR><MEAN_MOTION_DOT>.509E-5</MEAN_MOTION_DOT><MEAN_MOTION_DDOT>0</MEAN_MOTION_DDOT></tleParameters></data></segment></body></omm>
<omm id="CCSDS_OMM_VERS" version="2.0">
<header><CREATION_DATE/><ORIGINATOR/></header><body><segment><metadata><OBJECT_NAME>ONEWEB-0035</OBJECT_NAME><OBJECT_ID>2020-008N</OBJECT_ID><CENTER_NAME>EARTH</CENTER_NAME><REF_FRAME>TEME</REF_FRAME><TIME_SYSTEM>UTC</TIME_SYSTEM><MEAN_ELEMENT_THEORY>SGP4</MEAN_ELEMENT_THEORY></metadata><data><meanElements><EPOCH>2023-11-15T05:41:13.611840</EPOCH><MEAN_MOTION>13.10375931</MEAN_MOTION><ECCENTRICITY>.0001625</ECCENTRICITY><INCLINATION>87.8929</INCLINATION><RA_OF_ASC_NODE>223.9488</RA_OF_ASC_NODE><ARG_OF_PERICENTER>74.1900</ARG_OF_PERICENTER><MEAN_ANOMALY>285.9407</MEAN_ANOMALY></meanElements><tleParameters><EPHEMERIS_TYPE>0</EPHEMERIS_TYPE><CLASSIFICATION_TYPE>U</CLASSIFICATION_TYPE><NORAD_CAT_ID>45143</NORAD_CAT_ID><ELEMENT_SET_NO>999</ELEMENT_SET_NO><REV_AT_EPOCH>18418</REV_AT_EPOCH><BSTAR>-.1283E-2</BSTAR><MEAN_MOTION_DOT>-.435E-5</MEAN_MOTION_DOT><MEAN_MOTION_DDOT>0</MEAN_MOTION_DDOT></tleParameters></data></segment></body></omm>
<omm id="CCSDS_OMM_VERS" version="2.0">
<header><CREATION_DATE/><ORIGINATOR/></header><body><segment><metadata><OBJECT_NAME>ONEWEB-0036</OBJECT_NAME><OBJECT_ID>2020-008P</OBJECT_ID><CENTER_NAME>EARTH</CENTER_NAME><REF_FRAME>TEME</REF_FRAME><TIME_SYSTEM>UTC</TIME_SYSTEM><MEAN_ELEMENT_THEORY>SGP4</MEAN_ELEMENT_THEORY></metadata><data><meanElements><EPOCH>2023-11-15T07:17:07.312704</EPOCH><MEAN_MOTION>13.10367227</MEAN_MOTION><ECCENTRICITY>.0001827</ECCENTRICITY><INCLINATION>87.8930</INCLINATION><RA_OF_ASC_NODE>223.8979</RA_OF_ASC_NODE><ARG_OF_PERICENTER>70.7079</ARG_OF_PERICENTER><MEAN_ANOMALY>289.4245</MEAN_ANOMALY></meanElements><tleParameters><EPHEMERIS_TYPE>0</EPHEMERIS_TYPE><CLASSIFICATION_TYPE>U</CLASSIFICATION_TYPE><NORAD_CAT_ID>45144</NORAD_CAT_ID><ELEMENT_SET_NO>999</ELEMENT_SET_NO><REV_AT_EPOCH>18462</REV_AT_EPOCH><BSTAR>-.15937E-2</BSTAR><MEAN_MOTION_DOT>-.544E-5</MEAN_MOTION_DOT><MEAN_MOTION_DDOT>0</MEAN_MOTION_DDOT></tleParameters></data></segment></body></omm>
<omm id="CCSDS_OMM_VERS" version="2.0">
<header><CREATION_DATE/><ORIGINATOR/></header><body><segment><metadata><OBJECT_NAME>ONEWEB-0038</OBJECT_NAME><OBJECT_ID>2020-008Q</OBJECT_ID><CENTER_NAME>EARTH</CENTER_NAME><REF_FRAME>TEME</REF_FRAME><TIME_SYSTEM>UTC</TIME_SYSTEM><MEAN_ELEMENT_THEORY>SGP4</MEAN_ELEMENT_THEORY></metadata><data><meanElements><EPOCH>2023-11-15T05:17:35.115648</EPOCH><MEAN_MOTION>13.11420037</MEAN_MOTION><ECCENTRICITY>.0001628</ECCENTRICITY><INCLINATION>87.9007</INCLINATION><RA_OF_ASC_NODE>208.8121</RA_OF_ASC_NODE><ARG_OF_PERICENTER>42.4806</ARG_OF_PERICENTER><MEAN_ANOMALY>317.6447</MEAN_ANOMALY></meanElements><tleParameters><EPHEMERIS_TYPE>0</EPHEMERIS_TYPE><CLASSIFICATION_TYPE>U</CLASSIFICATION_TYPE><NORAD_CAT_ID>45145</NORAD_CAT_ID><ELEMENT_SET_NO>999</ELEMENT_SET_NO><REV_AT_EPOCH>18647</REV_AT_EPOCH><BSTAR>.1638E-2</BSTAR><MEAN_MOTION_DOT>.593E-5</MEAN_MOTION_DOT><MEAN_MOTION_DDOT>0</MEAN_MOTION_DDOT></tleParameters></data></segment></body></omm>
<omm id="CCSDS_OMM_VERS" version="2.0">
<header><CREATION_DATE/><ORIGINATOR/></header><body><segment><metadata><OBJECT_NAME>ONEWEB-0039</OBJECT_NAME><OBJECT_ID>2020-008R</OBJECT_ID><CENTER_NAME>EARTH</CENTER_NAME><REF_FRAME>TEME</REF_FRAME><TIME_SYSTEM>UTC</TIME_SYSTEM><MEAN_ELEMENT_THEORY>SGP4</MEAN_ELEMENT_THEORY></metadata><data><meanElements><EPOCH>2023-11-15T06:49:05.314656</EPOCH><MEAN_MOTION>13.10368976</MEAN_MOTION><ECCENTRICITY>.0002077</ECCENTRICITY><INCLINATION>87.8919</INCLINATION><RA_OF_ASC_NODE>223.9188</RA_OF_ASC_NODE><ARG_OF_PERICENTER>63.9875</ARG_OF_PERICENTER><MEAN_ANOMALY>296.1466</MEAN_ANOMALY></meanElements><tleParameters><EPHEMERIS_TYPE>0</EPHEMERIS_TYPE><CLASSIFICATION_TYPE>U</CLASSIFICATION_TYPE><NORAD_CAT_ID>45146</NORAD_CAT_ID><ELEMENT_SET_NO>999</ELEMENT_SET_NO><REV_AT_EPOCH>18441</REV_AT_EPOCH><BSTAR>.97574E-3</BSTAR><MEAN_MOTION_DOT>.353E-5</MEAN_MOTION_DOT><MEAN_MOTION_DDOT>0</MEAN_MOTION_DDOT></tleParameters></data></segment></body></omm>
<omm id="CCSDS_OMM_VERS" version="2.0">
<header><CREATION_DATE/><ORIGINATOR/></header><body><segment><metadata><OBJECT_NAME>ONEWEB-0040</OBJECT_NAME><OBJECT_ID>2020-008S</OBJECT_ID><CENTER_NAME>EARTH</CENTER_NAME><REF_FRAME>TEME</REF_FRAME><TIME_SYSTEM>UTC</TIME_SYSTEM><MEAN_ELEMENT_THEORY>SGP4</MEAN_ELEMENT_THEORY></metadata><data><meanElements><EPOCH>2023-11-15T23:09:20.184480</EPOCH><MEAN_MOTION>13.10370503</MEAN_MOTION><ECCENTRICITY>.0001673</ECCENTRICITY><INCLINATION>87.8928</INCLINATION><RA_OF_ASC_NODE>223.7715</RA_OF_ASC_NODE><ARG_OF_PERICENTER>69.1953</ARG_OF_PERICENTER><MEAN_ANOMALY>290.9354</MEAN_ANOMALY></meanElements><tleParameters><EPHEMERIS_TYPE>0</EPHEMERIS_TYPE><CLASSIFICATION_TYPE>U</CLASSIFICATION_TYPE><NORAD_CAT_ID>45147</NORAD_CAT_ID><ELEMENT_SET_NO>999</ELEMENT_SET_NO><REV_AT_EPOCH>18420</REV_AT_EPOCH><BSTAR>.17711E-2</BSTAR><MEAN_MOTION_DOT>.631E-5</MEAN_MOTION_DOT><MEAN_MOTION_DDOT>0</MEAN_MOTION_DDOT></tleParameters></data></segment></body></omm>
<omm id="CCSDS_OMM_VERS" version="2.0">
<header><CREATION_DATE/><ORIGINATOR/></header><body><segment><metadata><OBJECT_NAME>ONEWEB-0041</OBJECT_NAME><OBJECT_ID>2020-008T</OBJECT_ID><CENTER_NAME>EARTH</CENTER_NAME><REF_FRAME>TEME</REF_FRAME><TIME_SYSTEM>UTC</TIME_SYSTEM><MEAN_ELEMENT_THEORY>SGP4</MEAN_ELEMENT_THEORY></metadata><data><meanElements><EPOCH>2023-11-15T13:38:44.232000</EPOCH><MEAN_MOTION>13.48425741</MEAN_MOTION><ECCENTRICITY>.0019253</ECCENTRICITY><INCLINATION>87.9452</INCLINATION><RA_OF_ASC_NODE>200.1121</RA_OF_ASC_NODE><ARG_OF_PERICENTER>61.9836</ARG_OF_PERICENTER><MEAN_ANOMALY>298.3258</MEAN_ANOMALY></meanElements><tleParameters><EPHEMERIS_TYPE>0</EPHEMERIS_TYPE><CLASSIFICATION_TYPE>U</CLASSIFICATION_TYPE><NORAD_CAT_ID>45148</NORAD_CAT_ID><ELEMENT_SET_NO>999</ELEMENT_SET_NO><REV_AT_EPOCH>19074</REV_AT_EPOCH><BSTAR>.18951E-3</BSTAR><MEAN_MOTION_DOT>.132E-5</MEAN_MOTION_DOT><MEAN_MOTION_DDOT>0</MEAN_MOTION_DDOT></tleParameters></data></segment></body></omm>

</ndm>
